{
  "type": "FeatureCollection",
  "features": [
    {
      "type": "Feature",
      "properties": {
        "norad_id": 41866,
        "name": "GOES 16",
        "group": "weather",
        "lat": 0.05905174485446779,
        "lon": 136.6971258999355,
        "alt_km": 35794.4729952454,
        "timestamp": "2025-12-25T09:48:51.930803+00:00",
        "meta_object_name": "GOES 16",
        "meta_object_id": "2016-071A",
        "meta_epoch": "2025-12-24T12:07:46.794144",
        "meta_mean_motion": 1.00273928,
        "meta_eccentricity": 0.00030223,
        "meta_inclination": 0.0751,
        "meta_ra_of_asc_node": 101.9123,
        "meta_arg_of_pericenter": 169.4084,
        "meta_mean_anomaly": 259.2386,
        "meta_ephemeris_type": 0,
        "meta_classification_type": "U",
        "meta_norad_cat_id": 41866,
        "meta_element_set_no": 999,
        "meta_rev_at_epoch": 3335,
        "meta_bstar": 0,
        "meta_mean_motion_dot": -7e-07,
        "meta_mean_motion_ddot": 0,
        "tle_line1": "1 41866U 16071A   25358.50540271 -.00000070  00000+0  00000+0 0  9993",
        "tle_line2": "2 41866   0.0751 101.9123 0003022 169.4084 259.2386  1.00273928 33357"
      },
      "geometry": {
        "type": "Point",
        "coordinates": [
          136.6971258999355,
          0.05905174485446779
        ]
      }
    },
    {
      "type": "Feature",
      "properties": {
        "norad_id": 41882,
        "name": "FENGYUN 4A",
        "group": "weather",
        "lat": -1.8368095808929235,
        "lon": 5.023335944429393,
        "alt_km": 35803.189112027256,
        "timestamp": "2025-12-25T09:48:51.930815+00:00",
        "meta_object_name": "FENGYUN 4A",
        "meta_object_id": "2016-077A",
        "meta_epoch": "2025-12-25T00:47:51.835776",
        "meta_mean_motion": 1.0026324,
        "meta_eccentricity": 0.0004499,
        "meta_inclination": 1.8783,
        "meta_ra_of_asc_node": 82.2707,
        "meta_arg_of_pericenter": 142.9856,
        "meta_mean_anomaly": 4.1226,
        "meta_ephemeris_type": 0,
        "meta_classification_type": "U",
        "meta_norad_cat_id": 41882,
        "meta_element_set_no": 999,
        "meta_rev_at_epoch": 3318,
        "meta_bstar": 0,
        "meta_mean_motion_dot": -3.37e-06,
        "meta_mean_motion_ddot": 0,
        "tle_line1": "1 41882U 16077A   25359.03323884 -.00000337  00000+0  00000+0 0  9991",
        "tle_line2": "2 41882   1.8783  82.2707 0004499 142.9856   4.1226  1.00263240 33187"
      },
      "geometry": {
        "type": "Point",
        "coordinates": [
          5.023335944429393,
          -1.8368095808929235
        ]
      }
    },
    {
      "type": "Feature",
      "properties": {
        "norad_id": 41884,
        "name": "CYGFM05",
        "group": "weather",
        "lat": 12.318902336288748,
        "lon": 126.13225655412074,
        "alt_km": 424.4511032112541,
        "timestamp": "2025-12-25T09:48:51.930827+00:00",
        "meta_object_name": "CYGFM05",
        "meta_object_id": "2016-078A",
        "meta_epoch": "2025-12-25T01:23:45.430944",
        "meta_mean_motion": 15.4809271,
        "meta_eccentricity": 0.001058,
        "meta_inclination": 34.9604,
        "meta_ra_of_asc_node": 326.6388,
        "meta_arg_of_pericenter": 289.3009,
        "meta_mean_anomaly": 70.6568,
        "meta_ephemeris_type": 0,
        "meta_classification_type": "U",
        "meta_norad_cat_id": 41884,
        "meta_element_set_no": 999,
        "meta_rev_at_epoch": 50167,
        "meta_bstar": 0.00037646,
        "meta_mean_motion_dot": 0.00020396,
        "meta_mean_motion_ddot": 0,
        "tle_line1": "1 41884U 16078A   25359.05816471  .00020396  00000+0  37646-3 0  9991",
        "tle_line2": "2 41884  34.9604 326.6388 0010580 289.3009  70.6568 15.48092710501672"
      },
      "geometry": {
        "type": "Point",
        "coordinates": [
          126.13225655412074,
          12.318902336288748
        ]
      }
    },
    {
      "type": "Feature",
      "properties": {
        "norad_id": 41885,
        "name": "CYGFM04",
        "group": "weather",
        "lat": 9.1906524863975,
        "lon": 105.34997849010796,
        "alt_km": 417.24860743320824,
        "timestamp": "2025-12-25T09:48:51.930838+00:00",
        "meta_object_name": "CYGFM04",
        "meta_object_id": "2016-078B",
        "meta_epoch": "2025-12-25T02:55:55.495776",
        "meta_mean_motion": 15.50887952,
        "meta_eccentricity": 0.0009137,
        "meta_inclination": 34.935,
        "meta_ra_of_asc_node": 300.6357,
        "meta_arg_of_pericenter": 314.4705,
        "meta_mean_anomaly": 45.5269,
        "meta_ephemeris_type": 0,
        "meta_classification_type": "U",
        "meta_norad_cat_id": 41885,
        "meta_element_set_no": 999,
        "meta_rev_at_epoch": 50186,
        "meta_bstar": 0.00039917,
        "meta_mean_motion_dot": 0.00023881,
        "meta_mean_motion_ddot": 0,
        "tle_line1": "1 41885U 16078B   25359.12217009  .00023881  00000+0  39917-3 0  9997",
        "tle_line2": "2 41885  34.9350 300.6357 0009137 314.4705  45.5269 15.50887952501861"
      },
      "geometry": {
        "type": "Point",
        "coordinates": [
          105.34997849010796,
          9.1906524863975
        ]
      }
    },
    {
      "type": "Feature",
      "properties": {
        "norad_id": 41886,
        "name": "CYGFM02",
        "group": "weather",
        "lat": -29.958423147846283,
        "lon": 172.54902069380165,
        "alt_km": 410.2402630695424,
        "timestamp": "2025-12-25T09:48:51.930848+00:00",
        "meta_object_name": "CYGFM02",
        "meta_object_id": "2016-078C",
        "meta_epoch": "2025-12-25T02:36:29.026656",
        "meta_mean_motion": 15.52304448,
        "meta_eccentricity": 0.001078,
        "meta_inclination": 34.9438,
        "meta_ra_of_asc_node": 298.8882,
        "meta_arg_of_pericenter": 315.8617,
        "meta_mean_anomaly": 44.1245,
        "meta_ephemeris_type": 0,
        "meta_classification_type": "U",
        "meta_norad_cat_id": 41886,
        "meta_element_set_no": 999,
        "meta_rev_at_epoch": 50199,
        "meta_bstar": 0.00041088,
        "meta_mean_motion_dot": 0.00025893,
        "meta_mean_motion_ddot": 0,
        "tle_line1": "1 41886U 16078C   25359.10866929  .00025893  00000+0  41088-3 0  9994",
        "tle_line2": "2 41886  34.9438 298.8882 0010780 315.8617  44.1245 15.52304448501992"
      },
      "geometry": {
        "type": "Point",
        "coordinates": [
          172.54902069380165,
          -29.958423147846283
        ]
      }
    },
    {
      "type": "Feature",
      "properties": {
        "norad_id": 41887,
        "name": "CYGFM01",
        "group": "weather",
        "lat": -25.692088017558326,
        "lon": -169.84305172559633,
        "alt_km": 418.0567122386901,
        "timestamp": "2025-12-25T09:48:51.930859+00:00",
        "meta_object_name": "CYGFM01",
        "meta_object_id": "2016-078D",
        "meta_epoch": "2025-12-25T02:38:26.280096",
        "meta_mean_motion": 15.48689153,
        "meta_eccentricity": 0.0010368,
        "meta_inclination": 34.9435,
        "meta_ra_of_asc_node": 328.5608,
        "meta_arg_of_pericenter": 281.9479,
        "meta_mean_anomaly": 78.0081,
        "meta_ephemeris_type": 0,
        "meta_classification_type": "U",
        "meta_norad_cat_id": 41887,
        "meta_element_set_no": 999,
        "meta_rev_at_epoch": 50162,
        "meta_bstar": 0.00040129,
        "meta_mean_motion_dot": 0.0002221,
        "meta_mean_motion_ddot": 0,
        "tle_line1": "1 41887U 16078D   25359.11002639  .00022210  00000+0  40129-3 0  9991",
        "tle_line2": "2 41887  34.9435 328.5608 0010368 281.9479  78.0081 15.48689153501626"
      },
      "geometry": {
        "type": "Point",
        "coordinates": [
          -169.84305172559633,
          -25.692088017558326
        ]
      }
    },
    {
      "type": "Feature",
      "properties": {
        "norad_id": 41888,
        "name": "CYGFM08",
        "group": "weather",
        "lat": -14.747561209325065,
        "lon": -72.69778138859753,
        "alt_km": 410.42597364398443,
        "timestamp": "2025-12-25T09:48:51.930877+00:00",
        "meta_object_name": "CYGFM08",
        "meta_object_id": "2016-078E",
        "meta_epoch": "2025-12-25T02:11:54.201120",
        "meta_mean_motion": 15.49927321,
        "meta_eccentricity": 0.0011479,
        "meta_inclination": 34.9462,
        "meta_ra_of_asc_node": 311.5279,
        "meta_arg_of_pericenter": 305.4464,
        "meta_mean_anomaly": 54.5187,
        "meta_ephemeris_type": 0,
        "meta_classification_type": "U",
        "meta_norad_cat_id": 41888,
        "meta_element_set_no": 999,
        "meta_rev_at_epoch": 50185,
        "meta_bstar": 0.00039057,
        "meta_mean_motion_dot": 0.00022597,
        "meta_mean_motion_ddot": 0,
        "tle_line1": "1 41888U 16078E   25359.09159955  .00022597  00000+0  39057-3 0  9999",
        "tle_line2": "2 41888  34.9462 311.5279 0011479 305.4464  54.5187 15.49927321501857"
      },
      "geometry": {
        "type": "Point",
        "coordinates": [
          -72.69778138859753,
          -14.747561209325065
        ]
      }
    }
  ]
}